[{"OBJECT_NAME":"ONEWEB-0564","OBJECT_ID":"2023-029F","EPOCH":"2025-11-29T16:00:29.373696","MEAN_MOTION":13.20774472,"ECCENTRICITY":0.0001641,"INCLINATION":87.9191,"RA_OF_ASC_NODE":314.2612,"ARG_OF_PERICENTER":97.3744,"MEAN_ANOMALY":262.7576,"EPHEMERIS_TYPE":0,"CLASSIFICATION_TYPE":"U","NORAD_CAT_ID":55801,"ELEMENT_SET_NO":999,"REV_AT_EPOCH":13481,"BSTAR":0.00039084,"MEAN_MOTION_DOT":1.72e-6,"MEAN_MOTION_DDOT":0},{"OBJECT_NAME":"ONEWEB-0638","OBJECT_ID":"2023-029G","EPOCH":"2025-11-29T06:42:22.231872","MEAN_MOTION":13.14503066,"ECCENTRICITY":0.00019453,"INCLINATION":87.8979,"RA_OF_ASC_NODE":329.5966,"ARG_OF_PERICENTER":104.2426,"MEAN_ANOMALY":255.892,"EPHEMERIS_TYPE":0,"CLASSIFICATION_TYPE":"U","NORAD_CAT_ID":55802,"ELEMENT_SET_NO":999,"REV_AT_EPOCH":13313,"BSTAR":0.00050674344,"MEAN_MOTION_DOT":2.01e-6,"MEAN_MOTION_DDOT":0},{"OBJECT_NAME":"ONEWEB-0639","OBJECT_ID":"2023-029H","EPOCH":"2025-11-29T13:23:24.477216","MEAN_MOTION":13.19723411,"ECCENTRICITY":0.0002804,"INCLINATION":87.919,"RA_OF_ASC_NODE":344.7047,"ARG_OF_PERICENTER":80.3031,"MEAN_ANOMALY":279.8418,"EPHEMERIS_TYPE":0,"CLASSIFICATION_TYPE":"U","NORAD_CAT_ID":55803,"ELEMENT_SET_NO":999,"REV_AT_EPOCH":13257,"BSTAR":7.0279e-5,"MEAN_MOTION_DOT":4.1e-7,"MEAN_MOTION_DDOT":0},{"OBJECT_NAME":"ONEWEB-0640","OBJECT_ID":"2023-029J","EPOCH":"2025-11-29T17:53:43.060128","MEAN_MOTION":13.1450293,"ECCENTRICITY":0.0002433,"INCLINATION":87.8978,"RA_OF_ASC_NODE":329.491,"ARG_OF_PERICENTER":100.9224,"MEAN_ANOMALY":259.218,"EPHEMERIS_TYPE":0,"CLASSIFICATION_TYPE":"U","NORAD_CAT_ID":55804,"ELEMENT_SET_NO":999,"REV_AT_EPOCH":13321,"BSTAR":0.00054862,"MEAN_MOTION_DOT":2.16e-6,"MEAN_MOTION_DDOT":0},{"OBJECT_NAME":"ONEWEB-0641","OBJECT_ID":"2023-029K","EPOCH":"2025-11-29T13:16:35.125248","MEAN_MOTION":13.1972379,"ECCENTRICITY":0.0001946,"INCLINATION":87.9202,"RA_OF_ASC_NODE":344.6853,"ARG_OF_PERICENTER":87.5847,"MEAN_ANOMALY":272.5508,"EPHEMERIS_TYPE":0,"CLASSIFICATION_TYPE":"U","NORAD_CAT_ID":55805,"ELEMENT_SET_NO":999,"REV_AT_EPOCH":13258,"BSTAR":-0.00018617,"MEAN_MOTION_DOT":-6.2e-7,"MEAN_MOTION_DDOT":0},{"OBJECT_NAME":"ONEWEB-0642","OBJECT_ID":"2023-029L","EPOCH":"2025-11-29T18:37:17.621760","MEAN_MOTION":13.19723651,"ECCENTRICITY":0.000249,"INCLINATION":87.9194,"RA_OF_ASC_NODE":344.6652,"ARG_OF_PERICENTER":76.0588,"MEAN_ANOMALY":284.0821,"EPHEMERIS_TYPE":0,"CLASSIFICATION_TYPE":"U","NORAD_CAT_ID":55806,"ELEMENT_SET_NO":999,"REV_AT_EPOCH":13260,"BSTAR":0.00021241,"MEAN_MOTION_DOT":9.8e-7,"MEAN_MOTION_DDOT":0},{"OBJECT_NAME":"ONEWEB-0643","OBJECT_ID":"2023-029M","EPOCH":"2025-11-29T17:10:19.538688","MEAN_MOTION":13.14502901,"ECCENTRICITY":0.0002173,"INCLINATION":87.8984,"RA_OF_ASC_NODE":329.4826,"ARG_OF_PERICENTER":71.0658,"MEAN_ANOMALY":289.0707,"EPHEMERIS_TYPE":0,"CLASSIFICATION_TYPE":"U","NORAD_CAT_ID":55807,"ELEMENT_SET_NO":999,"REV_AT_EPOCH":13318,"BSTAR":-0.00040403,"MEAN_MOTION_DOT":-1.37e-6,"MEAN_MOTION_DDOT":0},{"OBJECT_NAME":"ONEWEB-0644","OBJECT_ID":"2023-029N","EPOCH":"2025-11-29T18:30:29.709216","MEAN_MOTION":13.19725656,"ECCENTRICITY":0.0002072,"INCLINATION":87.919,"RA_OF_ASC_NODE":344.6756,"ARG_OF_PERICENTER":82.3982,"MEAN_ANOMALY":277.7386,"EPHEMERIS_TYPE":0,"CLASSIFICATION_TYPE":"U","NORAD_CAT_ID":55808,"ELEMENT_SET_NO":999,"REV_AT_EPOCH":13260,"BSTAR":0.00019852,"MEAN_MOTION_DOT":9.2e-7,"MEAN_MOTION_DDOT":0},{"OBJECT_NAME":"ONEWEB-0645","OBJECT_ID":"2023-029P","EPOCH":"2025-11-29T19:02:19.195872","MEAN_MOTION":13.19721681,"ECCENTRICITY":0.0002311,"INCLINATION":87.9187,"RA_OF_ASC_NODE":344.6656,"ARG_OF_PERICENTER":90.8949,"MEAN_ANOMALY":269.2448,"EPHEMERIS_TYPE":0,"CLASSIFICATION_TYPE":"U","NORAD_CAT_ID":55809,"ELEMENT_SET_NO":999,"REV_AT_EPOCH":13260,"BSTAR":0.0019162,"MEAN_MOTION_DOT":7.8e-6,"MEAN_MOTION_DDOT":0},{"OBJECT_NAME":"ONEWEB-0646","OBJECT_ID":"2023-029Q","EPOCH":"2025-11-29T17:38:10.910400","MEAN_MOTION":13.19726715,"ECCENTRICITY":0.0002013,"INCLINATION":87.9195,"RA_OF_ASC_NODE":344.6677,"ARG_OF_PERICENTER":84.309,"MEAN_ANOMALY":275.8272,"EPHEMERIS_TYPE":0,"CLASSIFICATION_TYPE":"U","NORAD_CAT_ID":55810,"ELEMENT_SET_NO":999,"REV_AT_EPOCH":13258,"BSTAR":0.00017404,"MEAN_MOTION_DOT":8.3e-7,"MEAN_MOTION_DDOT":0},{"OBJECT_NAME":"ONEWEB-0648","OBJECT_ID":"2023-029R","EPOCH":"2025-11-29T18:14:16.515168","MEAN_MOTION":13.14503624,"ECCENTRICITY":0.0002771,"INCLINATION":87.8985,"RA_OF_ASC_NODE":329.4355,"ARG_OF_PERICENTER":84.2,"MEAN_ANOMALY":275.9446,"EPHEMERIS_TYPE":0,"CLASSIFICATION_TYPE":"U","NORAD_CAT_ID":55811,"ELEMENT_SET_NO":999,"REV_AT_EPOCH":13319,"BSTAR":0.00061633,"MEAN_MOTION_DOT":2.41e-6,"MEAN_MOTION_DDOT":0},{"OBJECT_NAME":"ONEWEB-0649","OBJECT_ID":"2023-029S","EPOCH":"2025-11-29T18:14:32.385984","MEAN_MOTION":13.19723345,"ECCENTRICITY":0.0002239,"INCLINATION":87.9202,"RA_OF_ASC_NODE":344.6581,"ARG_OF_PERICENTER":87.6392,"MEAN_ANOMALY":272.4997,"EPHEMERIS_TYPE":0,"CLASSIFICATION_TYPE":"U","NORAD_CAT_ID":55812,"ELEMENT_SET_NO":999,"REV_AT_EPOCH":13262,"BSTAR":0.00012114,"MEAN_MOTION_DOT":6.1e-7,"MEAN_MOTION_DDOT":0},{"OBJECT_NAME":"ONEWEB-0650","OBJECT_ID":"2023-029T","EPOCH":"2025-11-29T18:07:43.241376","MEAN_MOTION":13.19727487,"ECCENTRICITY":0.0002233,"INCLINATION":87.9192,"RA_OF_ASC_NODE":344.6663,"ARG_OF_PERICENTER":83.3548,"MEAN_ANOMALY":276.7839,"EPHEMERIS_TYPE":0,"CLASSIFICATION_TYPE":"U","NORAD_CAT_ID":55813,"ELEMENT_SET_NO":999,"REV_AT_EPOCH":13259,"BSTAR":0.00024543,"MEAN_MOTION_DOT":1.11e-6,"MEAN_MOTION_DDOT":0},{"OBJECT_NAME":"ONEWEB-0652","OBJECT_ID":"2023-029U","EPOCH":"2025-11-29T12:18:02.282688","MEAN_MOTION":13.14502814,"ECCENTRICITY":0.0001626,"INCLINATION":87.8981,"RA_OF_ASC_NODE":329.5055,"ARG_OF_PERICENTER":90.4841,"MEAN_ANOMALY":269.6475,"EPHEMERIS_TYPE":0,"CLASSIFICATION_TYPE":"U","NORAD_CAT_ID":55814,"ELEMENT_SET_NO":999,"REV_AT_EPOCH":13313,"BSTAR":0.00067559,"MEAN_MOTION_DOT":2.63e-6,"MEAN_MOTION_DDOT":0},{"OBJECT_NAME":"ONEWEB-0653","OBJECT_ID":"2023-029V","EPOCH":"2025-11-29T17:24:01.933632","MEAN_MOTION":13.14502995,"ECCENTRICITY":0.0001792,"INCLINATION":87.8984,"RA_OF_ASC_NODE":329.4526,"ARG_OF_PERICENTER":94.3244,"MEAN_ANOMALY":265.809,"EPHEMERIS_TYPE":0,"CLASSIFICATION_TYPE":"U","NORAD_CAT_ID":55815,"ELEMENT_SET_NO":999,"REV_AT_EPOCH":13319,"BSTAR":1.6023e-5,"MEAN_MOTION_DOT":1.9e-7,"MEAN_MOTION_DDOT":0},{"OBJECT_NAME":"ONEWEB-0654","OBJECT_ID":"2023-029W","EPOCH":"2025-11-29T17:17:10.583232","MEAN_MOTION":13.14502487,"ECCENTRICITY":0.0001515,"INCLINATION":87.8986,"RA_OF_ASC_NODE":329.4529,"ARG_OF_PERICENTER":97.0571,"MEAN_ANOMALY":263.0731,"EPHEMERIS_TYPE":0,"CLASSIFICATION_TYPE":"U","NORAD_CAT_ID":55816,"ELEMENT_SET_NO":999,"REV_AT_EPOCH":13321,"BSTAR":-0.00037801,"MEAN_MOTION_DOT":-1.27e-6,"MEAN_MOTION_DDOT":0},{"OBJECT_NAME":"ONEWEB-0656","OBJECT_ID":"2023-029X","EPOCH":"2025-11-29T15:51:23.520096","MEAN_MOTION":13.20769613,"ECCENTRICITY":0.0001506,"INCLINATION":87.9192,"RA_OF_ASC_NODE":314.2187,"ARG_OF_PERICENTER":96.3062,"MEAN_ANOMALY":263.8243,"EPHEMERIS_TYPE":0,"CLASSIFICATION_TYPE":"U","NORAD_CAT_ID":55817,"ELEMENT_SET_NO":999,"REV_AT_EPOCH":13481,"BSTAR":0.00018492,"MEAN_MOTION_DOT":8.8e-7,"MEAN_MOTION_DDOT":0}]
