ONEWEB-0564             
1 55801U 23029F   25333.66700664  .00000172  00000+0  39084-3 0  9992
2 55801  87.9191 314.2612 0001641  97.3744 262.7576 13.20774472134810
ONEWEB-0638             
1 55802U 23029G   25333.27942398  .00000201  00000+0  50674-3 0  9993
2 55802  87.8979 329.5966 0001945 104.2426 255.8920 13.14503066133139
ONEWEB-0639             
1 55803U 23029H   25333.55792219  .00000041  00000+0  70279-4 0  9996
2 55803  87.9190 344.7047 0002804  80.3031 279.8418 13.19723411132574
ONEWEB-0640             
1 55804U 23029J   25333.74563727  .00000216  00000+0  54862-3 0  9991
2 55804  87.8978 329.4910 0002433 100.9224 259.2180 13.14502930133214
ONEWEB-0641             
1 55805U 23029K   25333.55318432 -.00000062  00000+0 -18617-3 0  9991
2 55805  87.9202 344.6853 0001946  87.5847 272.5508 13.19723790132585
ONEWEB-0642             
1 55806U 23029L   25333.77589840  .00000098  00000+0  21241-3 0  9993
2 55806  87.9194 344.6652 0002490  76.0588 284.0821 13.19723651132608
ONEWEB-0643             
1 55807U 23029M   25333.71550392 -.00000137  00000+0 -40403-3 0  9995
2 55807  87.8984 329.4826 0002173  71.0658 289.0707 13.14502901133180
ONEWEB-0644             
1 55808U 23029N   25333.77117719  .00000092  00000+0  19852-3 0  9996
2 55808  87.9190 344.6756 0002072  82.3982 277.7386 13.19725656132607
ONEWEB-0645             
1 55809U 23029P   25333.79327773  .00000780  00000+0  19162-2 0  9999
2 55809  87.9187 344.6656 0002311  90.8949 269.2448 13.19721681132605
ONEWEB-0646             
1 55810U 23029Q   25333.73484850  .00000083  00000+0  17404-3 0  9999
2 55810  87.9195 344.6677 0002013  84.3090 275.8272 13.19726715132581
ONEWEB-0648             
1 55811U 23029R   25333.75991337  .00000241  00000+0  61633-3 0  9994
2 55811  87.8985 329.4355 0002771  84.2000 275.9446 13.14503624133192
ONEWEB-0649             
1 55812U 23029S   25333.76009706  .00000061  00000+0  12114-3 0  9996
2 55812  87.9202 344.6581 0002239  87.6392 272.4997 13.19723345132625
ONEWEB-0650             
1 55813U 23029T   25333.75536159  .00000111  00000+0  24543-3 0  9998
2 55813  87.9192 344.6663 0002233  83.3548 276.7839 13.19727487132594
ONEWEB-0652             
1 55814U 23029U   25333.51252642  .00000263  00000+0  67559-3 0  9997
2 55814  87.8981 329.5055 0001626  90.4841 269.6475 13.14502814133135
ONEWEB-0653             
1 55815U 23029V   25333.72502238  .00000019  00000+0  16023-4 0  9990
2 55815  87.8984 329.4526 0001792  94.3244 265.8090 13.14502995133192
ONEWEB-0654             
1 55816U 23029W   25333.72026138 -.00000127  00000+0 -37801-3 0  9999
2 55816  87.8986 329.4529 0001515  97.0571 263.0731 13.14502487133215
ONEWEB-0656             
1 55817U 23029X   25333.66068889  .00000088  00000+0  18492-3 0  9991
2 55817  87.9192 314.2187 0001506  96.3062 263.8243 13.20769613134811
